[{"OBJECT_NAME":"STARLINK-6139","OBJECT_ID":"2023-090J","EPOCH":"2026-03-09T20:00:51.659136","MEAN_MOTION":15.0253533,"ECCENTRICITY":0.00014053,"INCLINATION":43.004,"RA_OF_ASC_NODE":273.9931,"ARG_OF_PERICENTER":267.3015,"MEAN_ANOMALY":92.7667,"EPHEMERIS_TYPE":0,"CLASSIFICATION_TYPE":"U","NORAD_CAT_ID":57109,"ELEMENT_SET_NO":999,"REV_AT_EPOCH":15043,"BSTAR":-9.477038e-6,"MEAN_MOTION_DOT":-3.32e-6,"MEAN_MOTION_DDOT":0},{"OBJECT_NAME":"THOR ABLESTAR DEB","OBJECT_ID":"1961-015G","EPOCH":"2026-03-09T12:36:21.518784","MEAN_MOTION":14.9924172,"ECCENTRICITY":0.00458994,"INCLINATION":66.74,"RA_OF_ASC_NODE":114.2823,"ARG_OF_PERICENTER":282.1843,"MEAN_ANOMALY":77.4151,"EPHEMERIS_TYPE":0,"CLASSIFICATION_TYPE":"U","NORAD_CAT_ID":122,"ELEMENT_SET_NO":999,"REV_AT_EPOCH":37932,"BSTAR":0.00092278357,"MEAN_MOTION_DOT":0.00011411,"MEAN_MOTION_DDOT":0}]
